{
  "type": "FeatureCollection",
  "features": [
    {
      "type": "Feature",
      "properties": {
        "norad_id": 66920,
        "name": "HULIANWANG DIGUI-110",
        "group": "last-30-days",
        "lat": 8.863863746378101,
        "lon": -109.97992437554461,
        "alt_km": 884.0129604515496,
        "timestamp": "2025-12-22T11:33:19.156574+00:00",
        "meta_object_name": "HULIANWANG DIGUI-110",
        "meta_object_id": "2025-285F",
        "meta_epoch": "2025-12-22T05:37:50.342016",
        "meta_mean_motion": 14.03682987,
        "meta_eccentricity": 0.0005594,
        "meta_inclination": 50.0106,
        "meta_ra_of_asc_node": 78.5465,
        "meta_arg_of_pericenter": 321.2579,
        "meta_mean_anomaly": 38.7924,
        "meta_ephemeris_type": 0,
        "meta_classification_type": "U",
        "meta_norad_cat_id": 66920,
        "meta_element_set_no": 999,
        "meta_rev_at_epoch": 224,
        "meta_bstar": 0.00011981,
        "meta_mean_motion_dot": 3.8e-07,
        "meta_mean_motion_ddot": 0,
        "tle_line1": "1 66920U 25285F   25356.23461044  .00000038  00000+0  11981-3 0  9993",
        "tle_line2": "2 66920  50.0106  78.5465 0005594 321.2579  38.7924 14.03682987  2243"
      },
      "geometry": {
        "type": "Point",
        "coordinates": [
          -109.97992437554461,
          8.863863746378101
        ]
      }
    },
    {
      "type": "Feature",
      "properties": {
        "norad_id": 66921,
        "name": "HULIANWANG DIGUI-111",
        "group": "last-30-days",
        "lat": 5.6944101858681355,
        "lon": -107.26388295700653,
        "alt_km": 885.3320880885312,
        "timestamp": "2025-12-22T11:33:19.156586+00:00",
        "meta_object_name": "HULIANWANG DIGUI-111",
        "meta_object_id": "2025-285G",
        "meta_epoch": "2025-12-22T05:36:38.308608",
        "meta_mean_motion": 14.03632544,
        "meta_eccentricity": 0.0006681,
        "meta_inclination": 50.0122,
        "meta_ra_of_asc_node": 78.5453,
        "meta_arg_of_pericenter": 325.0157,
        "meta_mean_anomaly": 35.0308,
        "meta_ephemeris_type": 0,
        "meta_classification_type": "U",
        "meta_norad_cat_id": 66921,
        "meta_element_set_no": 999,
        "meta_rev_at_epoch": 224,
        "meta_bstar": 0.00011446,
        "meta_mean_motion_dot": 2.9e-07,
        "meta_mean_motion_ddot": 0,
        "tle_line1": "1 66921U 25285G   25356.23377672  .00000029  00000+0  11446-3 0  9993",
        "tle_line2": "2 66921  50.0122  78.5453 0006681 325.0157  35.0308 14.03632544  2241"
      },
      "geometry": {
        "type": "Point",
        "coordinates": [
          -107.26388295700653,
          5.6944101858681355
        ]
      }
    },
    {
      "type": "Feature",
      "properties": {
        "norad_id": 66922,
        "name": "HULIANWANG DIGUI-112",
        "group": "last-30-days",
        "lat": 1.611566673361232,
        "lon": -103.83367890235989,
        "alt_km": 885.8485739913813,
        "timestamp": "2025-12-22T11:33:19.156596+00:00",
        "meta_object_name": "HULIANWANG DIGUI-112",
        "meta_object_id": "2025-285H",
        "meta_epoch": "2025-12-22T05:35:07.923840",
        "meta_mean_motion": 14.03662573,
        "meta_eccentricity": 0.00065,
        "meta_inclination": 50.0094,
        "meta_ra_of_asc_node": 78.5325,
        "meta_arg_of_pericenter": 335.6916,
        "meta_mean_anomaly": 24.3681,
        "meta_ephemeris_type": 0,
        "meta_classification_type": "U",
        "meta_norad_cat_id": 66922,
        "meta_element_set_no": 999,
        "meta_rev_at_epoch": 224,
        "meta_bstar": 0.00012926,
        "meta_mean_motion_dot": 5.3e-07,
        "meta_mean_motion_ddot": 0,
        "tle_line1": "1 66922U 25285H   25356.23273060  .00000053  00000+0  12926-3 0  9991",
        "tle_line2": "2 66922  50.0094  78.5325 0006500 335.6916  24.3681 14.03662573  2248"
      },
      "geometry": {
        "type": "Point",
        "coordinates": [
          -103.83367890235989,
          1.611566673361232
        ]
      }
    },
    {
      "type": "Feature",
      "properties": {
        "norad_id": 66923,
        "name": "HULIANWANG DIGUI-113",
        "group": "last-30-days",
        "lat": -2.9118812802104643,
        "lon": -100.04300381124627,
        "alt_km": 885.0320780748543,
        "timestamp": "2025-12-22T11:33:19.156606+00:00",
        "meta_object_name": "HULIANWANG DIGUI-113",
        "meta_object_id": "2025-285J",
        "meta_epoch": "2025-12-22T05:33:27.532224",
        "meta_mean_motion": 14.0370044,
        "meta_eccentricity": 0.0005116,
        "meta_inclination": 50.0094,
        "meta_ra_of_asc_node": 78.5279,
        "meta_arg_of_pericenter": 330.1996,
        "meta_mean_anomaly": 29.8616,
        "meta_ephemeris_type": 0,
        "meta_classification_type": "U",
        "meta_norad_cat_id": 66923,
        "meta_element_set_no": 999,
        "meta_rev_at_epoch": 224,
        "meta_bstar": 0.00011542,
        "meta_mean_motion_dot": 3.1e-07,
        "meta_mean_motion_ddot": 0,
        "tle_line1": "1 66923U 25285J   25356.23156866  .00000031  00000+0  11542-3 0  9995",
        "tle_line2": "2 66923  50.0094  78.5279 0005116 330.1996  29.8616 14.03700440  2241"
      },
      "geometry": {
        "type": "Point",
        "coordinates": [
          -100.04300381124627,
          -2.9118812802104643
        ]
      }
    },
    {
      "type": "Feature",
      "properties": {
        "norad_id": 66924,
        "name": "CZ-8A R/B",
        "group": "last-30-days",
        "lat": -22.216335150927247,
        "lon": -85.26482166780544,
        "alt_km": 760.6364541008234,
        "timestamp": "2025-12-22T11:33:19.156619+00:00",
        "meta_object_name": "CZ-8A R/B",
        "meta_object_id": "2025-285K",
        "meta_epoch": "2025-12-21T16:08:52.251072",
        "meta_mean_motion": 14.30505087,
        "meta_eccentricity": 0.0119259,
        "meta_inclination": 50.008,
        "meta_ra_of_asc_node": 78.1289,
        "meta_arg_of_pericenter": 138.2364,
        "meta_mean_anomaly": 222.7729,
        "meta_ephemeris_type": 0,
        "meta_classification_type": "U",
        "meta_norad_cat_id": 66924,
        "meta_element_set_no": 999,
        "meta_rev_at_epoch": 220,
        "meta_bstar": 4.9813e-05,
        "meta_mean_motion_dot": -2.5e-07,
        "meta_mean_motion_ddot": 0,
        "tle_line1": "1 66924U 25285K   25355.67282698 -.00000025  00000+0  49813-4 0  9993",
        "tle_line2": "2 66924  50.0080  78.1289 0119259 138.2364 222.7729 14.30505087  2209"
      },
      "geometry": {
        "type": "Point",
        "coordinates": [
          -85.26482166780544,
          -22.216335150927247
        ]
      }
    },
    {
      "type": "Feature",
      "properties": {
        "norad_id": 66925,
        "name": "STARLINK-35945",
        "group": "last-30-days",
        "lat": -47.88657802302991,
        "lon": -54.3961026024417,
        "alt_km": 352.6433158759173,
        "timestamp": "2025-12-22T11:33:19.156629+00:00",
        "meta_object_name": "STARLINK-35945",
        "meta_object_id": "2025-286A",
        "meta_epoch": "2025-12-22T04:00:01.998720",
        "meta_mean_motion": 15.74278044,
        "meta_eccentricity": 0.0001278,
        "meta_inclination": 53.1588,
        "meta_ra_of_asc_node": 3.2027,
        "meta_arg_of_pericenter": 88.1764,
        "meta_mean_anomaly": 218.938,
        "meta_ephemeris_type": 0,
        "meta_classification_type": "U",
        "meta_norad_cat_id": 66925,
        "meta_element_set_no": 999,
        "meta_rev_at_epoch": 350,
        "meta_bstar": -0.0018521,
        "meta_mean_motion_dot": -0.00264567,
        "meta_mean_motion_ddot": 0,
        "tle_line1": "1 66925U 25286A   25356.16668980 -.00264567  00000+0 -18521-2 0  9996",
        "tle_line2": "2 66925  53.1588   3.2027 0001278  88.1764 218.9380 15.74278044  3507"
      },
      "geometry": {
        "type": "Point",
        "coordinates": [
          -54.3961026024417,
          -47.88657802302991
        ]
      }
    },
    {
      "type": "Feature",
      "properties": {
        "norad_id": 66926,
        "name": "STARLINK-35942",
        "group": "last-30-days",
        "lat": -46.453997281580484,
        "lon": -50.4412208630808,
        "alt_km": 356.1775311775418,
        "timestamp": "2025-12-22T11:33:19.156639+00:00",
        "meta_object_name": "STARLINK-35942",
        "meta_object_id": "2025-286B",
        "meta_epoch": "2025-12-22T04:00:01.998720",
        "meta_mean_motion": 15.74225539,
        "meta_eccentricity": 9.28e-05,
        "meta_inclination": 53.1591,
        "meta_ra_of_asc_node": 3.1941,
        "meta_arg_of_pericenter": 108.2108,
        "meta_mean_anomaly": 202.7242,
        "meta_ephemeris_type": 0,
        "meta_classification_type": "U",
        "meta_norad_cat_id": 66926,
        "meta_element_set_no": 999,
        "meta_rev_at_epoch": 350,
        "meta_bstar": -0.015714,
        "meta_mean_motion_dot": -0.02032495,
        "meta_mean_motion_ddot": 0,
        "tle_line1": "1 66926U 25286B   25356.16668980 -.02032495  00000+0 -15714-1 0  9992",
        "tle_line2": "2 66926  53.1591   3.1941 0000928 108.2108 202.7242 15.74225539  3502"
      },
      "geometry": {
        "type": "Point",
        "coordinates": [
          -50.4412208630808,
          -46.453997281580484
        ]
      }
    }
  ]
}